FENGYUN 1C DEB          
1 33673U 99025DFJ 26095.08770660  .00001314  00000+0  95329-3 0  9992
2 33673  99.3284 148.3786 0104726 276.1333 112.8250 13.95719262914830
FENGYUN 1C DEB          
1 33674U 99025DFK 26093.06708627  .00001863  00000+0  16367-2 0  9996
2 33674  98.5962 137.5374 0206818 300.8262  57.2685 13.77343071898970
FENGYUN 1C DEB          
1 33676U 99025DFM 26094.04609524  .00000811  00000+0  23596-3 0  9998
2 33676  99.0821 129.6391 0204857 101.0691 261.3605 14.35699185669220
FENGYUN 1C DEB          
1 33678U 99025DFP 26092.49991881  .00002083  00000+0  44749-3 0  9993
2 33678  99.0257 170.6057 0202392 265.9670  91.8365 14.47898787966983
FENGYUN 1C DEB          
1 33679U 99025DFQ 26095.51104556  .00025084  00000+0  12664-2 0  9991
2 33679  99.3338 191.1852 0129728 290.1615  68.5693 15.09970643958367
FENGYUN 1C DEB          
1 33682U 99025DFT 26093.10587666  .00005498  00000+0  22464-2 0  9991
2 33682  99.4089 153.1308 0030918 125.8462 234.5595 14.27474130932867
FENGYUN 1C DEB          
1 33684U 99025DFV 26095.14764640  .00011138  00000+0  85724-3 0  9995
2 33684  99.0436 169.2373 0276523 346.8231  12.5851 14.76268846946609
FENGYUN 1C DEB          
1 33687U 99025DFY 26090.35283193  .00027894  00000+0  91861-3 0  9990
2 33687  98.9841 122.3733 0098156 330.3914  29.1783 15.26850376731612
FENGYUN 1C DEB          
1 33688U 99025DFZ 26095.59879636  .00010565  00000+0  27977-2 0  9998
2 33688  99.3493 213.7461 0049050 286.1437  73.4357 14.48252177931283
FENGYUN 1C DEB          
1 33689U 99025DGA 26081.31956287  .00003697  00000+0  10388-2 0  9998
2 33689  99.5610 106.1832 0047057 219.4453 207.1474 14.46001073709695
FENGYUN 1C DEB          
1 33690U 99025DGB 26087.23721643  .00008850  00000+0  21105-2 0  9998
2 33690  98.6075 193.3453 0031817  90.5599 269.9242 14.53646052947519
FENGYUN 1C DEB          
1 33693U 99025DGE 26094.44306700  .00001123  00000+0  10767-2 0  9993
2 33693  99.2246 272.8353 0225204  64.3798 298.0433 13.71660085897763
FENGYUN 1C DEB          
1 33698U 99025DGK 26095.19432082  .00001540  00000+0  32146-3 0  9993
2 33698  99.6389  77.6219 0136264 241.1829 117.5627 14.56165945972874
FENGYUN 1C DEB          
1 33701U 99025DGN 26087.29177619  .00002111  00000+0  12870-2 0  9998
2 33701  98.6696  41.6207 0131366 252.4058 106.2724 14.02919099919854
FENGYUN 1C DEB          
1 33710U 99025DGX 26095.23890621  .00002387  00000+0  13063-2 0  9996
2 33710  98.9747 199.1815 0056013 185.7105 174.3434 14.12097871692582
FENGYUN 1C DEB          
1 33711U 99025DGY 26095.44694232  .00001643  00000+0  10770-2 0  9996
2 33711  99.1695 154.4428 0097983  94.5417 283.0879 14.01191250935244
