[{"OBJECT_NAME":"FENGYUN 1C DEB","OBJECT_ID":"1999-025DFJ","EPOCH":"2026-04-05T02:06:17.850240","MEAN_MOTION":13.95719262,"ECCENTRICITY":0.0104726,"INCLINATION":99.3284,"RA_OF_ASC_NODE":148.3786,"ARG_OF_PERICENTER":276.1333,"MEAN_ANOMALY":112.825,"EPHEMERIS_TYPE":0,"CLASSIFICATION_TYPE":"U","NORAD_CAT_ID":33673,"ELEMENT_SET_NO":999,"REV_AT_EPOCH":91483,"BSTAR":0.00095328586,"MEAN_MOTION_DOT":1.314e-5,"MEAN_MOTION_DDOT":0},{"OBJECT_NAME":"FENGYUN 1C DEB","OBJECT_ID":"1999-025DFK","EPOCH":"2026-04-03T01:36:36.253728","MEAN_MOTION":13.77343071,"ECCENTRICITY":0.02068182,"INCLINATION":98.5962,"RA_OF_ASC_NODE":137.5374,"ARG_OF_PERICENTER":300.8262,"MEAN_ANOMALY":57.2685,"EPHEMERIS_TYPE":0,"CLASSIFICATION_TYPE":"U","NORAD_CAT_ID":33674,"ELEMENT_SET_NO":999,"REV_AT_EPOCH":89897,"BSTAR":0.0016366861,"MEAN_MOTION_DOT":1.863e-5,"MEAN_MOTION_DDOT":0},{"OBJECT_NAME":"FENGYUN 1C DEB","OBJECT_ID":"1999-025DFM","EPOCH":"2026-04-04T01:06:22.628736","MEAN_MOTION":14.35699185,"ECCENTRICITY":0.02048575,"INCLINATION":99.0821,"RA_OF_ASC_NODE":129.6391,"ARG_OF_PERICENTER":101.0691,"MEAN_ANOMALY":261.3605,"EPHEMERIS_TYPE":0,"CLASSIFICATION_TYPE":"U","NORAD_CAT_ID":33676,"ELEMENT_SET_NO":999,"REV_AT_EPOCH":66922,"BSTAR":0.00023596166,"MEAN_MOTION_DOT":8.11e-6,"MEAN_MOTION_DDOT":0},{"OBJECT_NAME":"FENGYUN 1C DEB","OBJECT_ID":"1999-025DFP","EPOCH":"2026-04-02T11:59:52.985184","MEAN_MOTION":14.47898787,"ECCENTRICITY":0.02023928,"INCLINATION":99.0257,"RA_OF_ASC_NODE":170.6057,"ARG_OF_PERICENTER":265.967,"MEAN_ANOMALY":91.8365,"EPHEMERIS_TYPE":0,"CLASSIFICATION_TYPE":"U","NORAD_CAT_ID":33678,"ELEMENT_SET_NO":999,"REV_AT_EPOCH":96698,"BSTAR":0.00044749313,"MEAN_MOTION_DOT":2.083e-5,"MEAN_MOTION_DDOT":0},{"OBJECT_NAME":"FENGYUN 1C DEB","OBJECT_ID":"1999-025DFQ","EPOCH":"2026-04-05T12:15:54.336384","MEAN_MOTION":15.09970643,"ECCENTRICITY":0.0129728,"INCLINATION":99.3338,"RA_OF_ASC_NODE":191.1852,"ARG_OF_PERICENTER":290.1615,"MEAN_ANOMALY":68.5693,"EPHEMERIS_TYPE":0,"CLASSIFICATION_TYPE":"U","NORAD_CAT_ID":33679,"ELEMENT_SET_NO":999,"REV_AT_EPOCH":95836,"BSTAR":0.0012663725,"MEAN_MOTION_DOT":0.00025084,"MEAN_MOTION_DDOT":0},{"OBJECT_NAME":"FENGYUN 1C DEB","OBJECT_ID":"1999-025DFT","EPOCH":"2026-04-03T02:32:27.743424","MEAN_MOTION":14.2747413,"ECCENTRICITY":0.00309188,"INCLINATION":99.4089,"RA_OF_ASC_NODE":153.1308,"ARG_OF_PERICENTER":125.8462,"MEAN_ANOMALY":234.5595,"EPHEMERIS_TYPE":0,"CLASSIFICATION_TYPE":"U","NORAD_CAT_ID":33682,"ELEMENT_SET_NO":999,"REV_AT_EPOCH":93286,"BSTAR":0.0022463758,"MEAN_MOTION_DOT":5.498e-5,"MEAN_MOTION_DDOT":0},{"OBJECT_NAME":"FENGYUN 1C DEB","OBJECT_ID":"1999-025DFV","EPOCH":"2026-04-05T03:32:36.648960","MEAN_MOTION":14.76268846,"ECCENTRICITY":0.02765237,"INCLINATION":99.0436,"RA_OF_ASC_NODE":169.2373,"ARG_OF_PERICENTER":346.8231,"MEAN_ANOMALY":12.5851,"EPHEMERIS_TYPE":0,"CLASSIFICATION_TYPE":"U","NORAD_CAT_ID":33684,"ELEMENT_SET_NO":999,"REV_AT_EPOCH":94660,"BSTAR":0.00085723931,"MEAN_MOTION_DOT":0.00011138,"MEAN_MOTION_DDOT":0},{"OBJECT_NAME":"FENGYUN 1C DEB","OBJECT_ID":"1999-025DFY","EPOCH":"2026-03-31T08:28:04.678752","MEAN_MOTION":15.26850376,"ECCENTRICITY":0.00981561,"INCLINATION":98.9841,"RA_OF_ASC_NODE":122.3733,"ARG_OF_PERICENTER":330.3914,"MEAN_ANOMALY":29.1783,"EPHEMERIS_TYPE":0,"CLASSIFICATION_TYPE":"U","NORAD_CAT_ID":33687,"ELEMENT_SET_NO":999,"REV_AT_EPOCH":73161,"BSTAR":0.00091861475,"MEAN_MOTION_DOT":0.00027894,"MEAN_MOTION_DDOT":0},{"OBJECT_NAME":"FENGYUN 1C DEB","OBJECT_ID":"1999-025DFZ","EPOCH":"2026-04-05T14:22:16.005504","MEAN_MOTION":14.48252177,"ECCENTRICITY":0.00490504,"INCLINATION":99.3493,"RA_OF_ASC_NODE":213.7461,"ARG_OF_PERICENTER":286.1437,"MEAN_ANOMALY":73.4357,"EPHEMERIS_TYPE":0,"CLASSIFICATION_TYPE":"U","NORAD_CAT_ID":33688,"ELEMENT_SET_NO":999,"REV_AT_EPOCH":93128,"BSTAR":0.00279773,"MEAN_MOTION_DOT":0.00010565,"MEAN_MOTION_DDOT":0},{"OBJECT_NAME":"FENGYUN 1C DEB","OBJECT_ID":"1999-025DGA","EPOCH":"2026-03-22T07:40:10.231968","MEAN_MOTION":14.46001073,"ECCENTRICITY":0.00470576,"INCLINATION":99.561,"RA_OF_ASC_NODE":106.1832,"ARG_OF_PERICENTER":219.4453,"MEAN_ANOMALY":207.1474,"EPHEMERIS_TYPE":0,"CLASSIFICATION_TYPE":"U","NORAD_CAT_ID":33689,"ELEMENT_SET_NO":999,"REV_AT_EPOCH":70969,"BSTAR":0.0010388122,"MEAN_MOTION_DOT":3.697e-5,"MEAN_MOTION_DDOT":0},{"OBJECT_NAME":"FENGYUN 1C DEB","OBJECT_ID":"1999-025DGB","EPOCH":"2026-03-28T05:41:35.499552","MEAN_MOTION":14.53646052,"ECCENTRICITY":0.0031817,"INCLINATION":98.6075,"RA_OF_ASC_NODE":193.3453,"ARG_OF_PERICENTER":90.5599,"MEAN_ANOMALY":269.9242,"EPHEMERIS_TYPE":0,"CLASSIFICATION_TYPE":"U","NORAD_CAT_ID":33690,"ELEMENT_SET_NO":999,"REV_AT_EPOCH":94751,"BSTAR":0.0021105,"MEAN_MOTION_DOT":8.85e-5,"MEAN_MOTION_DDOT":0},{"OBJECT_NAME":"FENGYUN 1C DEB","OBJECT_ID":"1999-025DGE","EPOCH":"2026-04-04T10:38:00.988800","MEAN_MOTION":13.71660085,"ECCENTRICITY":0.02252047,"INCLINATION":99.2246,"RA_OF_ASC_NODE":272.8353,"ARG_OF_PERICENTER":64.3798,"MEAN_ANOMALY":298.0433,"EPHEMERIS_TYPE":0,"CLASSIFICATION_TYPE":"U","NORAD_CAT_ID":33693,"ELEMENT_SET_NO":999,"REV_AT_EPOCH":89776,"BSTAR":0.0010766866,"MEAN_MOTION_DOT":1.123e-5,"MEAN_MOTION_DDOT":0},{"OBJECT_NAME":"FENGYUN 1C DEB","OBJECT_ID":"1999-025DGK","EPOCH":"2026-04-05T04:39:49.318848","MEAN_MOTION":14.56165945,"ECCENTRICITY":0.01362645,"INCLINATION":99.6389,"RA_OF_ASC_NODE":77.6219,"ARG_OF_PERICENTER":241.1829,"MEAN_ANOMALY":117.5627,"EPHEMERIS_TYPE":0,"CLASSIFICATION_TYPE":"U","NORAD_CAT_ID":33698,"ELEMENT_SET_NO":999,"REV_AT_EPOCH":97287,"BSTAR":0.00032146056,"MEAN_MOTION_DOT":1.54e-5,"MEAN_MOTION_DDOT":0},{"OBJECT_NAME":"FENGYUN 1C DEB","OBJECT_ID":"1999-025DGN","EPOCH":"2026-03-28T07:00:09.462816","MEAN_MOTION":14.02919099,"ECCENTRICITY":0.01313663,"INCLINATION":98.6696,"RA_OF_ASC_NODE":41.6207,"ARG_OF_PERICENTER":252.4058,"MEAN_ANOMALY":106.2724,"EPHEMERIS_TYPE":0,"CLASSIFICATION_TYPE":"U","NORAD_CAT_ID":33701,"ELEMENT_SET_NO":999,"REV_AT_EPOCH":91985,"BSTAR":0.0012870139,"MEAN_MOTION_DOT":2.111e-5,"MEAN_MOTION_DDOT":0},{"OBJECT_NAME":"FENGYUN 1C DEB","OBJECT_ID":"1999-025DGX","EPOCH":"2026-04-05T05:44:01.496544","MEAN_MOTION":14.12097871,"ECCENTRICITY":0.0056013,"INCLINATION":98.9747,"RA_OF_ASC_NODE":199.1815,"ARG_OF_PERICENTER":185.7105,"MEAN_ANOMALY":174.3434,"EPHEMERIS_TYPE":0,"CLASSIFICATION_TYPE":"U","NORAD_CAT_ID":33710,"ELEMENT_SET_NO":999,"REV_AT_EPOCH":69258,"BSTAR":0.0013063,"MEAN_MOTION_DOT":2.387e-5,"MEAN_MOTION_DDOT":0},{"OBJECT_NAME":"FENGYUN 1C DEB","OBJECT_ID":"1999-025DGY","EPOCH":"2026-04-05T10:43:35.816448","MEAN_MOTION":14.0119125,"ECCENTRICITY":0.0097983,"INCLINATION":99.1695,"RA_OF_ASC_NODE":154.4428,"ARG_OF_PERICENTER":94.5417,"MEAN_ANOMALY":283.0879,"EPHEMERIS_TYPE":0,"CLASSIFICATION_TYPE":"U","NORAD_CAT_ID":33711,"ELEMENT_SET_NO":999,"REV_AT_EPOCH":93524,"BSTAR":0.0010769684,"MEAN_MOTION_DOT":1.643e-5,"MEAN_MOTION_DDOT":0}]
